NORAD_CAT_ID,OBJECT_NAME,OBJECT_TYPE,EPOCH,MEAN_MOTION,ECCENTRICITY,INCLINATION,RA_OF_ASC_NODE,ARG_OF_PERICENTER,MEAN_ANOMALY,BSTAR,MEAN_MOTION_DOT,MEAN_MOTION_DDOT,TLE_LINE0,TLE_LINE1,TLE_LINE2,SEMIMAJOR_AXIS,PERIOD,APOGEE,PERIGEE,DECAYED
49422.0,STARLINK-3161,PAYLOAD,2023-01-05 08:43:22,15.08868972,0.0003148999999999,53.217,33.5554,27.2861,332.8296,0.00063992,9.919e-05,0.0,0 STARLINK-3161,1 49422U 21104Q   23005.36345151  .00009919  00000-0  63992-3 0  9997,2 49422  53.2170  33.5554 0003149  27.2861 332.8296 15.08868972 64703,6917.792,95.436,541.835,537.4780000000002,0.0
49422.0,STARLINK-3161,PAYLOAD,2023-01-06 08:34:09,15.0881895,0.0003046,53.2155,29.0946,16.5832,343.5259,-0.00091265,-0.00014777,0.0,0 STARLINK-3161,1 49422U 21104Q   23006.35704868 -.00014777  00000-0 -91265-3 0  9995,2 49422  53.2155  29.0946 0003046  16.5832 343.5259 15.08818950 64851,6917.945,95.439,541.9169999999998,537.703,0.0
49422.0,STARLINK-3161,PAYLOAD,2023-01-06 11:44:55,15.08815116,0.0002921999999999,53.216,28.5007,18.6184,341.4914,-0.00066461,-0.00010844,0.0,0 STARLINK-3161,1 49422U 21104Q   23006.48953266 -.00010844  00000-0 -66461-3 0  9998,2 49422  53.2160  28.5007 0002922  18.6184 341.4914 15.08815116 63770,6917.956,95.439,541.8430000000002,537.8,0.0
49422.0,STARLINK-3161,PAYLOAD,2023-01-07 02:03:24,15.088203699999998,0.0002883,53.2158,25.8244,17.8749,342.2344,0.00087669,0.00013685,0.0,0 STARLINK-3161,1 49422U 21104Q   23007.08570562  .00013685  00000-0  87669-3 0  9996,2 49422  53.2158  25.8244 0002883  17.8749 342.2344 15.08820370 64960,6917.94,95.439,541.8,537.811,0.0
49422.0,STARLINK-3161,PAYLOAD,2023-01-07 17:57:16,15.08839436,0.000307,53.2158,22.8506,20.5715,339.54,0.00086904,0.0001357,0.0,0 STARLINK-3161,1 49422U 21104Q   23007.74810979  .00013570  00000-0  86904-3 0  9992,2 49422  53.2158  22.8506 0003070  20.5715 339.5400 15.08839436 63965,6917.882,95.438,541.871,537.623,0.0
49422.0,STARLINK-3161,PAYLOAD,2023-01-08 01:54:12,15.08826308,0.0002891,53.216,21.3638,18.5531,341.5566,0.00022391,3.276e-05,0.0,0 STARLINK-3161,1 49422U 21104Q   23008.07931244  .00003276  00000-0  22391-3 0  9990,2 49422  53.2160  21.3638 0002891  18.5531 341.5566 15.08826308 65110,6917.922,95.438,541.7869999999998,537.7869999999998,0.0
49422.0,STARLINK-3161,PAYLOAD,2023-01-08 09:51:08,15.08834195,0.0003052,53.2161,19.8769,23.2961,336.8169,0.00067368,0.00010448,0.0,0 STARLINK-3161,1 49422U 21104Q   23008.41051582  .00010448  00000-0  67368-3 0  9998,2 49422  53.2161  19.8769 0003052  23.2961 336.8169 15.08834195 64060,6917.898,95.438,541.874,537.6519999999998,0.0
49422.0,STARLINK-3161,PAYLOAD,2023-01-08 17:48:04,15.08847599,0.0003121,53.2163,18.3903,25.9484,334.1664,0.00091798,0.00014355,0.0,0 STARLINK-3161,1 49422U 21104Q   23008.74171541  .00014355  00000-0  91798-3 0  9997,2 49422  53.2163  18.3903 0003121  25.9484 334.1664 15.08847599 65213,6917.857,95.437,541.881,537.563,0.0
49422.0,STARLINK-3161,PAYLOAD,2023-01-09 06:31:08,15.08857882,0.0003306,53.2173,16.0117,29.5342,330.5836,0.00076624,0.00011934,0.0,0 STARLINK-3161,1 49422U 21104Q   23009.27163183  .00011934  00000-0  76624-3 0  9990,2 49422  53.2173  16.0117 0003306  29.5342 330.5836 15.08857882 64197,6917.826,95.436,541.9780000000002,537.404,0.0
49422.0,STARLINK-3161,PAYLOAD,2023-01-09 17:38:50,15.08845974,0.0003164,53.216,13.9297,26.3517,333.7636,6.9695e-05,8.21e-06,0.0,0 STARLINK-3161,1 49422U 21104Q   23009.73531095  .00000821  00000-0  69695-4 0  9996,2 49422  53.2160  13.9297 0003164  26.3517 333.7636 15.08845974 65361,6917.861999999999,95.437,541.9159999999998,537.538,0.0
49422.0,STARLINK-3161,PAYLOAD,2023-01-10 09:32:41,15.08851495,0.0003022,53.216,10.9558,22.519,337.5934,0.00023492,3.454e-05,0.0,0 STARLINK-3161,1 49422U 21104Q   23010.39770680  .00003454  00000-0  23492-3 0  9994,2 49422  53.2160  10.9558 0003022  22.5190 337.5934 15.08851495 64363,6917.845,95.437,541.8009999999998,537.62,0.0
49422.0,STARLINK-3161,PAYLOAD,2023-01-10 17:29:37,15.08847665,0.0003055,53.2157,9.4686,23.978,336.1353,0.00010424,1.371e-05,0.0,0 STARLINK-3161,1 49422U 21104Q   23010.72890611  .00001371  00000-0  10424-3 0  9995,2 49422  53.2157   9.4686 0003055  23.9780 336.1353 15.08847665 64410,6917.857,95.437,541.835,537.609,0.0
49422.0,STARLINK-3161,PAYLOAD,2023-01-11 06:12:42,15.08854566,0.0002979,53.2163,7.0896,25.0318,335.0818,0.00018643,2.681e-05,0.0,0 STARLINK-3161,1 49422U 21104Q   23011.25882105  .00002681  00000-0  18643-3 0  9999,2 49422  53.2163   7.0896 0002979  25.0318 335.0818 15.08854566 65590,6917.835999999998,95.437,541.762,537.64,0.0
49422.0,STARLINK-3161,PAYLOAD,2023-01-12 04:28:05,15.08852814,0.0002917,53.216,2.9267,21.26,338.8513,0.00014212,1.975e-05,0.0,0 STARLINK-3161,1 49422U 21104Q   23012.18617608  .00001975  00000-0  14212-3 0  9999,2 49422  53.2160   2.9267 0002917  21.2600 338.8513 15.08852814 65730,6917.840999999999,95.437,541.724,537.688,0.0
49422.0,STARLINK-3161,PAYLOAD,2023-01-12 23:32:43,15.08844804,0.0002874,53.2157,359.3574,23.9417,336.1708,3.7722e-05,3.12e-06,0.0,0 STARLINK-3161,1 49422U 21104Q   23012.98105741  .00000312  00000-0  37722-4 0  9993,2 49422  53.2157 359.3574 0002874  23.9417 336.1708 15.08844804 65853,6917.866,95.437,541.719,537.743,0.0
49422.0,STARLINK-3161,PAYLOAD,2023-01-13 05:54:15,15.0885728,0.0002908999999999,53.2161,358.1683,20.5236,339.5873,0.00018806,2.707e-05,0.0,0 STARLINK-3161,1 49422U 21104Q   23013.24600976  .00002707  00000-0  18806-3 0  9994,2 49422  53.2161 358.1683 0002909  20.5236 339.5873 15.08857280 65893,6917.828,95.436,541.705,537.68,0.0
49422.0,STARLINK-3161,PAYLOAD,2023-01-13 15:26:34,15.08839977,0.0003005,53.2158,356.3845,22.4741,337.6382,-2.9126e-05,-7.52e-06,0.0,0 STARLINK-3161,1 49422U 21104Q   23013.64345823 -.00000752  00000-0 -29126-4 0  9993,2 49422  53.2158 356.3845 0003005  22.4741 337.6382 15.08839977 65953,6917.88,95.438,541.8240000000001,537.6669999999999,0.0
49422.0,STARLINK-3161,PAYLOAD,2023-01-13 21:48:08,15.08831377,0.0003651,53.2159,355.1971,38.6119,321.5134,-7.546e-05,-1.49e-05,0.0,0 STARLINK-3161,1 49422U 21104Q   23013.90842820 -.00001490  00000-0 -75460-4 0  9993,2 49422  53.2159 355.1971 0003651  38.6119 321.5134 15.08831377 64891,6917.906999999999,95.438,542.297,537.246,0.0
49422.0,STARLINK-3161,PAYLOAD,2023-01-14 05:45:04,15.08818218,0.0002776,53.2152,353.7095,22.7538,337.3576,-0.00025616,-4.361e-05,0.0,0 STARLINK-3161,1 49422U 21104Q   23014.23963695 -.00004361  00000-0 -25616-3 0  9991,2 49422  53.2152 353.7095 0002776  22.7538 337.3576 15.08818218 66044,6917.946999999999,95.439,541.732,537.8919999999999,0.0
49422.0,STARLINK-3161,PAYLOAD,2023-01-14 23:14:19,15.08830953,0.0002578,53.2152,350.4379,28.0199,332.0931,8.6455e-05,1.087e-05,0.0,0 STARLINK-3161,1 49422U 21104Q   23014.96828050  .00001087  00000-0  86455-4 0  9995,2 49422  53.2152 350.4379 0002578  28.0199 332.0931 15.08830953 66154,6917.908,95.438,541.556,537.99,0.0
49422.0,STARLINK-3161,PAYLOAD,2023-01-15 08:46:37,15.08850915,0.0002466,53.215,348.6521,31.2789,328.8349,0.00060418,9.343e-05,0.0,0 STARLINK-3161,1 49422U 21104Q   23015.36571603  .00009343  00000-0  60418-3 0  9992,2 49422  53.2150 348.6521 0002466  31.2789 328.8349 15.08850915 66210,6917.847,95.437,541.418,538.006,0.0
49422.0,STARLINK-3161,PAYLOAD,2023-01-15 15:08:10,15.08838226,0.0002275999999999,53.2145,347.4605,34.4573,325.6567,0.00031128,4.669e-05,0.0,0 STARLINK-3161,1 49422U 21104Q   23015.63067949  .00004669  00000-0  31128-3 0  9997,2 49422  53.2145 347.4605 0002276  34.4573 325.6567 15.08838226 66251,6917.886,95.438,541.325,538.1759999999999,0.0
49422.0,STARLINK-3161,PAYLOAD,2023-01-16 05:26:38,15.08870435,0.0002362,53.2148,344.786,38.255,321.8609,0.00086223,0.00013473,0.0,0 STARLINK-3161,1 49422U 21104Q   23016.22683040  .00013473  00000-0  86223-3 0  9998,2 49422  53.2148 344.7860 0002362  38.2550 321.8609 15.08870435 66343,6917.786999999999,95.436,541.286,538.018,0.0
49422.0,STARLINK-3161,PAYLOAD,2023-01-16 21:20:30,15.08839477,0.0001568,53.214,341.8121,60.3764,299.7384,-0.00014636,-2.617e-05,0.0,0 STARLINK-3161,1 49422U 21104Q   23016.88923689 -.00002617  00000-0 -14636-3 0  9995,2 49422  53.2140 341.8121 0001568  60.3764 299.7384 15.08839477 66448,6917.882,95.438,540.832,538.6619999999999,0.0
49422.0,STARLINK-3161,PAYLOAD,2023-01-17 03:42:02,15.08836077,0.0001696999999999,53.2131,340.6219,56.8502,303.2653,-0.00010887,-2.02e-05,0.0,0 STARLINK-3161,1 49422U 21104Q   23017.15419960 -.00002020  00000-0 -10887-3 0  9990,2 49422  53.2131 340.6219 0001697  56.8502 303.2653 15.08836077 65381,6917.892,95.438,540.931,538.5830000000001,0.0
49422.0,STARLINK-3161,PAYLOAD,2023-01-17 14:49:45,15.08830775,0.0001485,53.2134,338.541,63.4716,296.6428,2.956e-06,-2.41e-06,0.0,0 STARLINK-3161,1 49422U 21104Q   23017.61788455 -.00000241  00000-0  29560-5 0  9991,2 49422  53.2134 338.5410 0001485  63.4716 296.6428 15.08830775 66553,6917.909000000001,95.438,540.8009999999999,538.746,0.0
49422.0,STARLINK-3161,PAYLOAD,2023-01-17 21:11:18,15.08825276,0.0001675999999999,53.2139,337.3515,72.0933,288.0242,-4.5361e-05,-1.01e-05,0.0,0 STARLINK-3161,1 49422U 21104Q   23017.88284909 -.00001010  00000-0 -45361-4 0  9997,2 49422  53.2139 337.3515 0001676  72.0933 288.0242 15.08825276 65491,6917.925,95.438,540.95,538.631,0.0
49422.0,STARLINK-3161,PAYLOAD,2023-01-18 05:08:13,15.08840335,0.0001854,53.2141,335.8651,69.2058,290.9133,0.00014785,2.066e-05,0.0,0 STARLINK-3161,1 49422U 21104Q   23018.21404596  .00002066  00000-0  14785-3 0  9996,2 49422  53.2141 335.8651 0001854  69.2058 290.9133 15.08840335 65542,6917.879,95.438,541.0269999999999,538.462,0.0
49422.0,STARLINK-3161,PAYLOAD,2023-01-18 21:02:05,15.08845515,0.0001483,53.2125,332.8939,47.3107,312.801,0.00053014,8.161e-05,0.0,0 STARLINK-3161,1 49422U 21104Q   23018.87644787  .00008161  00000-0  53014-3 0  9996,2 49422  53.2125 332.8939 0001483  47.3107 312.8010 15.08845515 66746,6917.8640000000005,95.437,540.754,538.703,0.0
